GPS BIIR-5  (PRN 22)    
1 26407U 00040A   26151.33902252  .00000046  00000+0  00000+0 0  9992
2 26407  54.8537 215.8317 0121271 302.3925  56.5067  2.00557645189616
GPS BIIR-8  (PRN 16)    
1 27663U 03005A   26151.15854417  .00000047  00000+0  00000+0 0  9991
2 27663  54.8848 215.6455 0147924  53.0332 311.3390  2.00561576170970
GPS BIIR-11 (PRN 19)    
1 28190U 04009A   26151.41691523 -.00000050  00000+0  00000+0 0  9993
2 28190  54.8441 276.3648 0115405 172.3818 172.0661  2.00555391162608
GPS BIIR-13 (PRN 02)    
1 28474U 04045A   26151.37375160 -.00000089  00000+0  00000+0 0  9991
2 28474  55.1466 325.5731 0169814 315.9851  62.2641  2.00555313158099
GPS BIIRM-1 (PRN 17)    
1 28874U 05038A   26151.40952309 -.00000047  00000+0  00000+0 0  9992
2 28874  54.8923 273.8546 0127771 296.0478  71.0310  2.00566966151502
GPS BIIRM-2 (PRN 31)    
1 29486U 06042A   26151.15751227  .00000060  00000+0  00000+0 0  9990
2 29486  54.7085 152.0150 0106258  54.0408  29.2669  2.00570946144058
GPS BIIRM-3 (PRN 12)    
1 29601U 06052A   26150.96768082  .00000048  00000+0  00000+0 0  9991
2 29601  54.9368 214.6889 0085424  90.6833 270.3822  2.00557337143065
GPS BIIRM-4 (PRN 15)    
1 32260U 07047A   26151.27246101 -.00000051  00000+0  00000+0 0  9994
2 32260  54.0830  80.7627 0166102  87.0538 274.8198  2.00556172136470
GPS BIIRM-5 (PRN 29)    
1 32384U 07062A   26150.83787207 -.00000053  00000+0  00000+0 0  9998
2 32384  55.0461 274.8500 0035399 164.5016   8.8200  2.00559181135166
GPS BIIRM-6 (PRN 07)    
1 32711U 08012A   26151.18528591  .00000058  00000+0  00000+0 0  9990
2 32711  54.4949 150.6039 0210878 247.6223 110.1406  2.00572059133412
GPS BIIRM-8 (PRN 05)    
1 35752U 09043A   26150.68608060 -.00000091  00000+0  00000+0 0  9995
2 35752  56.1995  28.1390 0053611  82.4813 288.1185  2.00555368123018
GPS BIIF-1  (PRN 25)    
1 36585U 10022A   26150.51599653  .00000055  00000+0  00000+0 0  9997
2 36585  54.2716 209.2740 0126346  66.1048 299.7385  2.00561647117244
GPS BIIF-3  (PRN 24)    
1 38833U 12053A   26150.86639939  .00000051  00000+0  00000+0 0  9997
2 38833  53.5827 144.3088 0179371  65.5174 296.3427  2.00567269 99098
GPS BIIF-4  (PRN 27)    
1 39166U 13023A   26151.23145524 -.00000043  00000+0  00000+0 0  9991
2 39166  54.5177 269.6643 0141675  50.9553 310.2947  2.00563699 95542
GPS BIIF-5  (PRN 30)    
1 39533U 14008A   26151.23291453  .00000056  00000+0  00000+0 0  9999
2 39533  53.6518 150.0111 0084202 230.9796 128.2777  2.00558788 89345
GPS BIIF-6  (PRN 06)    
1 39741U 14026A   26151.50831948 -.00000088  00000+0  00000+0 0  9995
2 39741  56.5064 332.1666 0038336 326.8498  32.9142  2.00562428 88200
GPS BIIF-7  (PRN 09)    
1 40105U 14045A   26151.10124751 -.00000039  00000+0  00000+0 0  9991
2 40105  55.3425  89.1455 0032621 118.4904 241.8053  2.00557396 85732
GPS BIIF-8  (PRN 03)    
1 40294U 14068A   26150.97257572 -.00000087  00000+0  00000+0 0  9990
2 40294  56.9760  31.6179 0066604  69.9763 290.7895  2.00575319 84861
GPS BIIF-9  (PRN 26)    
1 40534U 15013A   26151.10994487  .00000058  00000+0  00000+0 0  9994
2 40534  53.1692 204.8839 0109199  40.0529 320.8393  2.00552509 81484
GPS BIIF-10 (PRN 08)    
1 40730U 15033A   26151.26878740 -.00000040  00000+0  00000+0 0  9996
2 40730  53.9959 267.7840 0115038  30.1558 330.5027  2.00557258 79651
GPS BIIF-11 (PRN 10)    
1 41019U 15062A   26150.82698463 -.00000088  00000+0  00000+0 0  9994
2 41019  56.9480  31.4799 0111519 231.2324 127.8139  2.00567167 77488
GPS BIIF-12 (PRN 32)    
1 41328U 16007A   26150.91674734 -.00000039  00000+0  00000+0 0  9998
2 41328  55.5140  90.1441 0096229 247.3476 111.5999  2.00552701 75492
GPS BIII-1  (PRN 04)    
1 43873U 18109A   26151.31850294 -.00000032  00000+0  00000+0 0  9995
2 43873  55.6724  92.8521 0038181 198.3788 345.4774  2.00561103 54739
GPS BIII-2  (PRN 18)    
1 44506U 19056A   26151.45123139 -.00000090  00000+0  00000+0 0  9991
2 44506  55.6414 331.8074 0061117 197.3403 345.5610  2.00569893 49734
GPS BIII-3  (PRN 23)    
1 45854U 20041A   26151.52781884 -.00000085  00000+0  00000+0 0  9993
2 45854  56.6592  29.5897 0063281 204.6776 332.6203  2.00559374 43701
GPS BIII-4  (PRN 14)    
1 46826U 20078A   26150.43676341  .00000051  00000+0  00000+0 0  9995
2 46826  53.9818 211.4986 0072702 206.7371 238.5468  2.00565060 41158
GPS BIII-5  (PRN 11)    
1 48859U 21054A   26137.34480044 -.00000068  00000+0  00000+0 0  9995
2 48859  55.1880 333.6992 0024563 229.1334 308.8673  2.00570737 36131
GPS BIII-6  (PRN 28)    
1 55268U 23009A   26150.99906043  .00000059  00000+0  00000+0 0  9996
2 55268  55.1207 149.1942 0006132 315.6775  39.7726  2.00572815 24891
GPS BIII-7  (PRN 01)    
1 62339U 24242A   26151.40124279 -.00000092  00000+0  00000+0 0  9991
2 62339  54.8565 334.8617 0017380   4.3480   3.9198  2.00571587 10925
GPS BIII-8  (PRN 21)    
1 64202U 25116A   26150.39787344 -.00000093  00000+0  00000+0 0  9999
2 64202  55.2226  31.8461 0008541 336.7269 209.5516  2.00577472  7510
GPS BIII-9  (PRN 20)    
1 67588U 26017A   26150.24909249 -.00000043  00000+0  00000+0 0  9999
2 67588  55.0776  89.4749 0022608 256.9258 102.7871  2.00571628431254
GPS BIII-10 (PRN 13)    
1 68791U 26087A   26151.46146096  .00000056  00000+0  00000+0 0  9994
2 68791  54.9644 208.4492 0020616 107.4414 253.3721  2.00569132   506
